{"type": "FeatureCollection", "features": [ {"type": "Feature", "properties": {"norad_id": 30647, "name": "FENGYUN 1C DEB", "group": "fengyun-1c-debris", "lat": -80.08267890759603, "lon": -25.911432784154933, "alt_km": 706.1756647621751, "timestamp": "2025-12-03T20:47:58.501764+00:00", "meta": {"OBJECT_NAME": "FENGYUN 1C DEB", "OBJECT_ID": "1999-025APE", "EPOCH": "2025-12-02T19:03:39.332736", "MEAN_MOTION": 14.56138584, "ECCENTRICITY": 0.00287565, "INCLINATION": 98.9885, "RA_OF_ASC_NODE": 268.0697, "ARG_OF_PERICENTER": 206.5245, "MEAN_ANOMALY": 208.7008, "EPHEMERIS_TYPE": 0, "CLASSIFICATION_TYPE": "U", "NORAD_CAT_ID": 30647, "ELEMENT_SET_NO": 999, "REV_AT_EPOCH": 97844, "BSTAR": 0.0032090163, "MEAN_MOTION_DOT": 0.00014215, "MEAN_MOTION_DDOT": 0}, "tle": {"line1": "1 30647U 99025APE 25336.79420524  .00014215  00000+0  32090-2 0  9995", "line2": "2 30647  98.9885 268.0697 0028756 206.5245 208.7008 14.56138584978441"}}, "geometry": {"type": "Point", "coordinates": [-25.911432784154933, -80.08267890759603]}}, {"type": "Feature", "properties": {"norad_id": 30648, "name": "FENGYUN 1C DEB", "group": "fengyun-1c-debris", "lat": -32.13834134263525, "lon": 77.80377483055709, "alt_km": 763.4032149050954, "timestamp": "2025-12-03T20:47:58.501775+00:00", "meta": {"OBJECT_NAME": "FENGYUN 1C DEB", "OBJECT_ID": "1999-025APF", "EPOCH": "2025-12-02T18:59:01.176576", "MEAN_MOTION": 14.47846173, "ECCENTRICITY": 0.00350134, "INCLINATION": 98.6394, "RA_OF_ASC_NODE": 71.2241, "ARG_OF_PERICENTER": 157.3872, "MEAN_ANOMALY": 326.6974, "EPHEMERIS_TYPE": 0, "CLASSIFICATION_TYPE": "U", "NORAD_CAT_ID": 30648, "ELEMENT_SET_NO": 999, "REV_AT_EPOCH": 97722, "BSTAR": 0.0030899198, "MEAN_MOTION_DOT": 0.00011497, "MEAN_MOTION_DDOT": 0}, "tle": {"line1": "1 30648U 99025APF 25336.79098584  .00011497  00000+0  30899-2 0  9997", "line2": "2 30648  98.6394  71.2241 0035013 157.3872 326.6974 14.47846173977223"}}, "geometry": {"type": "Point", "coordinates": [77.80377483055709, -32.13834134263525]}}, {"type": "Feature", "properties": {"norad_id": 30649, "name": "FENGYUN 1C DEB", "group": "fengyun-1c-debris", "lat": -9.953071493835482, "lon": 74.63754390517191, "alt_km": 830.8876438458728, "timestamp": "2025-12-03T20:47:58.501785+00:00", "meta": {"OBJECT_NAME": "FENGYUN 1C DEB", "OBJECT_ID": "1999-025APG", "EPOCH": "2025-12-03T05:51:23.658048", "MEAN_MOTION": 14.29369632, "ECCENTRICITY": 0.0051378, "INCLINATION": 98.8102, "RA_OF_ASC_NODE": 72.4487, "ARG_OF_PERICENTER": 198.3206, "MEAN_ANOMALY": 189.4034, "EPHEMERIS_TYPE": 0, "CLASSIFICATION_TYPE": "U", "NORAD_CAT_ID": 30649, "ELEMENT_SET_NO": 999, "REV_AT_EPOCH": 96928, "BSTAR": 0.0028364, "MEAN_MOTION_DOT": 7.292e-05, "MEAN_MOTION_DDOT": 0}, "tle": {"line1": "1 30649U 99025APG 25337.24402382  .00007292  00000+0  28364-2 0  9996", "line2": "2 30649  98.8102  72.4487 0051378 198.3206 189.4034 14.29369632969285"}}, "geometry": {"type": "Point", "coordinates": [74.63754390517191, -9.953071493835482]}}, {"type": "Feature", "properties": {"norad_id": 30650, "name": "FENGYUN 1C DEB", "group": "fengyun-1c-debris", "lat": 55.72068772414971, "lon": -148.04284386675133, "alt_km": 841.4037469973136, "timestamp": "2025-12-03T20:47:58.501795+00:00", "meta": {"OBJECT_NAME": "FENGYUN 1C DEB", "OBJECT_ID": "1999-025APH", "EPOCH": "2025-12-03T01:47:21.143328", "MEAN_MOTION": 14.13845387, "ECCENTRICITY": 0.00719446, "INCLINATION": 99.2051, "RA_OF_ASC_NODE": 17.3793, "ARG_OF_PERICENTER": 216.3499, "MEAN_ANOMALY": 198.1372, "EPHEMERIS_TYPE": 0, "CLASSIFICATION_TYPE": "U", "NORAD_CAT_ID": 30650, "ELEMENT_SET_NO": 999, "REV_AT_EPOCH": 96162, "BSTAR": 0.001988181, "MEAN_MOTION_DOT": 3.815e-05, "MEAN_MOTION_DDOT": 0}, "tle": {"line1": "1 30650U 99025APH 25337.07455027  .00003815  00000+0  19882-2 0  9995", "line2": "2 30650  99.2051  17.3793 0071944 216.3499 198.1372 14.13845387961620"}}, "geometry": {"type": "Point", "coordinates": [-148.04284386675133, 55.72068772414971]}}, {"type": "Feature", "properties": {"norad_id": 30652, "name": "FENGYUN 1C DEB", "group": "fengyun-1c-debris", "lat": 20.851241829382417, "lon": 7.863199900668346, "alt_km": 866.4889560017209, "timestamp": "2025-12-03T20:47:58.501805+00:00", "meta": {"OBJECT_NAME": "FENGYUN 1C DEB", "OBJECT_ID": "1999-025APJ", "EPOCH": "2025-12-03T02:13:24.980736", "MEAN_MOTION": 14.07800007, "ECCENTRICITY": 0.00074197, "INCLINATION": 98.7864, "RA_OF_ASC_NODE": 10.4874, "ARG_OF_PERICENTER": 296.2066, "MEAN_ANOMALY": 124.4148, "EPHEMERIS_TYPE": 0, "CLASSIFICATION_TYPE": "U", "NORAD_CAT_ID": 30652, "ELEMENT_SET_NO": 999, "REV_AT_EPOCH": 96558, "BSTAR": 0.0001425391, "MEAN_MOTION_DOT": 1.99e-06, "MEAN_MOTION_DDOT": 0}, "tle": {"line1": "1 30652U 99025APJ 25337.09265024  .00000199  00000+0  14254-3 0  9996", "line2": "2 30652  98.7864  10.4874 0007419 296.2066 124.4148 14.07800007965580"}}, "geometry": {"type": "Point", "coordinates": [7.863199900668346, 20.851241829382417]}}, {"type": "Feature", "properties": {"norad_id": 30654, "name": "FENGYUN 1C DEB", "group": "fengyun-1c-debris", "lat": 80.67231388445684, "lon": 163.12334289460424, "alt_km": 806.4367313962457, "timestamp": "2025-12-03T20:47:58.501816+00:00", "meta": {"OBJECT_NAME": "FENGYUN 1C DEB", "OBJECT_ID": "1999-025APL", "EPOCH": "2025-12-02T17:15:26.527392", "MEAN_MOTION": 14.17027554, "ECCENTRICITY": 0.00345288, "INCLINATION": 99.2406, "RA_OF_ASC_NODE": 259.5693, "ARG_OF_PERICENTER": 124.8758, "MEAN_ANOMALY": 235.5669, "EPHEMERIS_TYPE": 0, "CLASSIFICATION_TYPE": "U", "NORAD_CAT_ID": 30654, "ELEMENT_SET_NO": 999, "REV_AT_EPOCH": 96538, "BSTAR": 0.0014784848, "MEAN_MOTION_DOT": 2.944e-05, "MEAN_MOTION_DDOT": 0}, "tle": {"line1": "1 30654U 99025APL 25336.71905703  .00002944  00000+0  14785-2 0  9999", "line2": "2 30654  99.2406 259.5693 0034528 124.8758 235.5669 14.17027554965389"}}, "geometry": {"type": "Point", "coordinates": [163.12334289460424, 80.67231388445684]}}, {"type": "Feature", "properties": {"norad_id": 30656, "name": "FENGYUN 1C DEB", "group": "fengyun-1c-debris", "lat": 61.858065532305154, "lon": 134.14436494075656, "alt_km": 721.9373397789477, "timestamp": "2025-12-03T20:47:58.501826+00:00", "meta": {"OBJECT_NAME": "FENGYUN 1C DEB", "OBJECT_ID": "1999-025APN", "EPOCH": "2025-12-03T10:32:14.743392", "MEAN_MOTION": 14.45033876, "ECCENTRICITY": 0.0030399, "INCLINATION": 99.0179, "RA_OF_ASC_NODE": 150.9621, "ARG_OF_PERICENTER": 114.7926, "MEAN_ANOMALY": 245.6431, "EPHEMERIS_TYPE": 0, "CLASSIFICATION_TYPE": "U", "NORAD_CAT_ID": 30656, "ELEMENT_SET_NO": 999, "REV_AT_EPOCH": 96951, "BSTAR": 0.0036822, "MEAN_MOTION_DOT": 0.00012905, "MEAN_MOTION_DDOT": 0}, "tle": {"line1": "1 30656U 99025APN 25337.43905953  .00012905  00000+0  36822-2 0  9992", "line2": "2 30656  99.0179 150.9621 0030399 114.7926 245.6431 14.45033876969511"}}, "geometry": {"type": "Point", "coordinates": [134.14436494075656, 61.858065532305154]}}, {"type": "Feature", "properties": {"norad_id": 30657, "name": "FENGYUN 1C DEB", "group": "fengyun-1c-debris", "lat": 33.25967436085909, "lon": 69.78248194078444, "alt_km": 751.0950074672091, "timestamp": "2025-12-03T20:47:58.501836+00:00", "meta": {"OBJECT_NAME": "FENGYUN 1C DEB", "OBJECT_ID": "1999-025APP", "EPOCH": "2025-12-03T05:52:12.505152", "MEAN_MOTION": 14.38387352, "ECCENTRICITY": 0.0015794, "INCLINATION": 98.8369, "RA_OF_ASC_NODE": 74.9988, "ARG_OF_PERICENTER": 15.6712, "MEAN_ANOMALY": 38.7512, "EPHEMERIS_TYPE": 0, "CLASSIFICATION_TYPE": "U", "NORAD_CAT_ID": 30657, "ELEMENT_SET_NO": 999, "REV_AT_EPOCH": 97096, "BSTAR": 0.0030345, "MEAN_MOTION_DOT": 9.229e-05, "MEAN_MOTION_DDOT": 0}, "tle": {"line1": "1 30657U 99025APP 25337.24458918  .00009229  00000+0  30345-2 0  9995", "line2": "2 30657  98.8369  74.9988 0015794  15.6712  38.7512 14.38387352970960"}}, "geometry": {"type": "Point", "coordinates": [69.78248194078444, 33.25967436085909]}}, {"type": "Feature", "properties": {"norad_id": 30658, "name": "FENGYUN 1C DEB", "group": "fengyun-1c-debris", "lat": 68.15245741161336, "lon": -147.10809068296285, "alt_km": 1036.2598596343787, "timestamp": "2025-12-03T20:47:58.501846+00:00", "meta": {"OBJECT_NAME": "FENGYUN 1C DEB", "OBJECT_ID": "1999-025APQ", "EPOCH": "2025-12-03T01:12:41.803776", "MEAN_MOTION": 13.87127057, "ECCENTRICITY": 0.01832033, "INCLINATION": 98.4391, "RA_OF_ASC_NODE": 10.4218, "ARG_OF_PERICENTER": 254.1059, "MEAN_ANOMALY": 103.9843, "EPHEMERIS_TYPE": 0, "CLASSIFICATION_TYPE": "U", "NORAD_CAT_ID": 30658, "ELEMENT_SET_NO": 999, "REV_AT_EPOCH": 94550, "BSTAR": 0.0023182779, "MEAN_MOTION_DOT": 3.066e-05, "MEAN_MOTION_DDOT": 0}, "tle": {"line1": "1 30658U 99025APQ 25337.05048384  .00003066  00000+0  23183-2 0  9992", "line2": "2 30658  98.4391  10.4218 0183203 254.1059 103.9843 13.87127057945509"}}, "geometry": {"type": "Point", "coordinates": [-147.10809068296285, 68.15245741161336]}}, {"type": "Feature", "properties": {"norad_id": 30660, "name": "FENGYUN 1C DEB", "group": "fengyun-1c-debris", "lat": -64.84765277127103, "lon": -123.65393872560304, "alt_km": 656.7223081805523, "timestamp": "2025-12-03T20:47:58.501856+00:00", "meta": {"OBJECT_NAME": "FENGYUN 1C DEB", "OBJECT_ID": "1999-025APS", "EPOCH": "2025-12-03T05:24:22.248000", "MEAN_MOTION": 14.87351251, "ECCENTRICITY": 0.0138049, "INCLINATION": 98.1425, "RA_OF_ASC_NODE": 73.4415, "ARG_OF_PERICENTER": 5.5598, "MEAN_ANOMALY": 49.6904, "EPHEMERIS_TYPE": 0, "CLASSIFICATION_TYPE": "U", "NORAD_CAT_ID": 30660, "ELEMENT_SET_NO": 999, "REV_AT_EPOCH": 643, "BSTAR": 0.0007625, "MEAN_MOTION_DOT": 8.148e-05, "MEAN_MOTION_DDOT": 0}, "tle": {"line1": "1 30660U 99025APS 25337.22525750  .00008148  00000+0  76250-3 0  9991", "line2": "2 30660  98.1425  73.4415 0138049   5.5598  49.6904 14.87351251  6439"}}, "geometry": {"type": "Point", "coordinates": [-123.65393872560304, -64.84765277127103]}}]}